IRIDIUM 116             
1 43072U 17083C   23342.50308274  .00000293  00000+0  97670-4 0  9994
2 43072  86.3970 347.2210 0002258  88.8548 271.2907 14.34215127312068
IRIDIUM 130             
1 43073U 17083D   23341.49462439  .00000113  00000+0  33405-4 0  9993
2 43073  86.3972 347.8291 0002320  90.6768 269.4694 14.34211395311863
IRIDIUM 151             
1 43074U 17083E   23341.53902037 -.00000055  00000+0 -26610-4 0  9999
2 43074  86.3962 347.6619 0001819  92.4896 267.6508 14.34212258311895
IRIDIUM 134             
1 43075U 17083F   23342.48407040  .00000289  00000+0  96294-4 0  9991
2 43075  86.3966 347.2621 0002375  90.3510 269.7958 14.34212827311992
IRIDIUM 137             
1 43076U 17083G   23341.51999411 -.00000053  00000+0 -25932-4 0  9995
2 43076  86.3964 347.7397 0001837  81.9334 278.2070 14.34212282311926
IRIDIUM 141             
1 43077U 17083H   23342.07180325  .00000302  00000+0  10092-3 0  9999
2 43077  86.3964 347.3917 0002122  95.0286 265.1152 14.34216867312000
IRIDIUM 153             
1 43078U 17083J   23341.88444082  .00000314  00000+0  10504-3 0  9992
2 43078  86.3948 315.9218 0002141  97.3780 262.7659 14.34213494313080
IRIDIUM 131             
1 43079U 17083K   23342.12888146  .00000300  00000+0  99927-4 0  9996
2 43079  86.3969 347.4926 0002119  92.6189 267.5249 14.34213365311944
